{"type": "FeatureCollection", "features": [ {"type": "Feature", "properties": {"norad_id": 30196, "name": "FENGYUN 1C DEB", "group": "fengyun-1c-debris", "lat": -41.87639780262041, "lon": 97.12528063054106, "alt_km": 796.5787788944299, "timestamp": "2025-12-22T23:36:20.987998+00:00", "meta": {"OBJECT_NAME": "FENGYUN 1C DEB", "OBJECT_ID": "1999-025VD", "EPOCH": "2025-12-22T01:03:00.539136", "MEAN_MOTION": 14.25850236, "ECCENTRICITY": 0.0086592, "INCLINATION": 98.6397, "RA_OF_ASC_NODE": 88.3647, "ARG_OF_PERICENTER": 36.3093, "MEAN_ANOMALY": 140.861, "EPHEMERIS_TYPE": 0, "CLASSIFICATION_TYPE": "U", "NORAD_CAT_ID": 30196, "ELEMENT_SET_NO": 999, "REV_AT_EPOCH": 98497, "BSTAR": 5.1406272e-05, "MEAN_MOTION_DOT": 8.4e-07, "MEAN_MOTION_DDOT": 0}, "tle": {"line1": "1 30196U 99025VD  25356.04375624  .00000084  00000+0  51406-4 0  9997", "line2": "2 30196  98.6397  88.3647 0086592  36.3093 140.8610 14.25850236984976"}}, "geometry": {"type": "Point", "coordinates": [97.12528063054106, -41.87639780262041]}}, {"type": "Feature", "properties": {"norad_id": 30197, "name": "FENGYUN 1C DEB", "group": "fengyun-1c-debris", "lat": -41.95505359843526, "lon": 94.60330072227535, "alt_km": 742.0792522755883, "timestamp": "2025-12-22T23:36:20.988009+00:00", "meta": {"OBJECT_NAME": "FENGYUN 1C DEB", "OBJECT_ID": "1999-025VE", "EPOCH": "2025-12-22T06:28:08.041728", "MEAN_MOTION": 14.37231118, "ECCENTRICITY": 0.00572596, "INCLINATION": 98.9397, "RA_OF_ASC_NODE": 281.9967, "ARG_OF_PERICENTER": 186.1323, "MEAN_ANOMALY": 303.5982, "EPHEMERIS_TYPE": 0, "CLASSIFICATION_TYPE": "U", "NORAD_CAT_ID": 30197, "ELEMENT_SET_NO": 999, "REV_AT_EPOCH": 98623, "BSTAR": 0.00061826709, "MEAN_MOTION_DOT": 1.829e-05, "MEAN_MOTION_DDOT": 0}, "tle": {"line1": "1 30197U 99025VE  25356.26953752  .00001829  00000+0  61827-3 0  9991", "line2": "2 30197  98.9397 281.9967 0057259 186.1323 303.5982 14.37231118986230"}}, "geometry": {"type": "Point", "coordinates": [94.60330072227535, -41.95505359843526]}}, {"type": "Feature", "properties": {"norad_id": 30198, "name": "FENGYUN 1C DEB", "group": "fengyun-1c-debris", "lat": -56.8893940641887, "lon": 141.2359239083499, "alt_km": 784.3439915305507, "timestamp": "2025-12-22T23:36:20.988031+00:00", "meta": {"OBJECT_NAME": "FENGYUN 1C DEB", "OBJECT_ID": "1999-025VF", "EPOCH": "2025-12-22T03:11:12.279264", "MEAN_MOTION": 14.50489941, "ECCENTRICITY": 0.01069371, "INCLINATION": 98.4484, "RA_OF_ASC_NODE": 127.2086, "ARG_OF_PERICENTER": 169.8164, "MEAN_ANOMALY": 11.4358, "EPHEMERIS_TYPE": 0, "CLASSIFICATION_TYPE": "U", "NORAD_CAT_ID": 30198, "ELEMENT_SET_NO": 999, "REV_AT_EPOCH": 98643, "BSTAR": 0.0019239091, "MEAN_MOTION_DOT": 8.062e-05, "MEAN_MOTION_DDOT": 0}, "tle": {"line1": "1 30198U 99025VF  25356.13278101  .00008062  00000+0  19239-2 0  9991", "line2": "2 30198  98.4484 127.2086 0106937 169.8164  11.4358 14.50489941986434"}}, "geometry": {"type": "Point", "coordinates": [141.2359239083499, -56.8893940641887]}}, {"type": "Feature", "properties": {"norad_id": 30199, "name": "FENGYUN 1C DEB", "group": "fengyun-1c-debris", "lat": -59.347548421618995, "lon": -173.93239058057992, "alt_km": 726.0289121939732, "timestamp": "2025-12-22T23:36:20.988043+00:00", "meta": {"OBJECT_NAME": "FENGYUN 1C DEB", "OBJECT_ID": "1999-025VG", "EPOCH": "2025-12-21T13:42:53.713728", "MEAN_MOTION": 14.38561386, "ECCENTRICITY": 0.0077716, "INCLINATION": 98.3838, "RA_OF_ASC_NODE": 19.0975, "ARG_OF_PERICENTER": 281.8701, "MEAN_ANOMALY": 210.1058, "EPHEMERIS_TYPE": 0, "CLASSIFICATION_TYPE": "U", "NORAD_CAT_ID": 30199, "ELEMENT_SET_NO": 999, "REV_AT_EPOCH": 98537, "BSTAR": 0.00072843, "MEAN_MOTION_DOT": 2.264e-05, "MEAN_MOTION_DDOT": 0}, "tle": {"line1": "1 30199U 99025VG  25355.57145502  .00002264  00000+0  72843-3 0  9996", "line2": "2 30199  98.3838  19.0975 0077716 281.8701 210.1058 14.38561386985373"}}, "geometry": {"type": "Point", "coordinates": [-173.93239058057992, -59.347548421618995]}}, {"type": "Feature", "properties": {"norad_id": 30200, "name": "FENGYUN 1C DEB", "group": "fengyun-1c-debris", "lat": -25.854421732688397, "lon": -163.4543208834549, "alt_km": 833.2183359970368, "timestamp": "2025-12-22T23:36:20.988053+00:00", "meta": {"OBJECT_NAME": "FENGYUN 1C DEB", "OBJECT_ID": "1999-025VH", "EPOCH": "2025-12-21T12:16:21.836640", "MEAN_MOTION": 14.22282537, "ECCENTRICITY": 0.01475544, "INCLINATION": 99.1126, "RA_OF_ASC_NODE": 190.5633, "ARG_OF_PERICENTER": 74.3432, "MEAN_ANOMALY": 287.397, "EPHEMERIS_TYPE": 0, "CLASSIFICATION_TYPE": "U", "NORAD_CAT_ID": 30200, "ELEMENT_SET_NO": 999, "REV_AT_EPOCH": 98107, "BSTAR": 0.0001148583, "MEAN_MOTION_DOT": 2.38e-06, "MEAN_MOTION_DDOT": 0}, "tle": {"line1": "1 30200U 99025VH  25355.51136385  .00000238  00000+0  11486-3 0  9997", "line2": "2 30200  99.1126 190.5633 0147554  74.3432 287.3970 14.22282537981078"}}, "geometry": {"type": "Point", "coordinates": [-163.4543208834549, -25.854421732688397]}}, {"type": "Feature", "properties": {"norad_id": 30201, "name": "FENGYUN 1C DEB", "group": "fengyun-1c-debris", "lat": -80.53589567063564, "lon": -144.44741106089685, "alt_km": 802.4382909565174, "timestamp": "2025-12-22T23:36:20.988064+00:00", "meta": {"OBJECT_NAME": "FENGYUN 1C DEB", "OBJECT_ID": "1999-025VJ", "EPOCH": "2025-12-22T10:31:16.012992", "MEAN_MOTION": 14.22960339, "ECCENTRICITY": 0.00287317, "INCLINATION": 99.4015, "RA_OF_ASC_NODE": 131.3033, "ARG_OF_PERICENTER": 284.599, "MEAN_ANOMALY": 75.2, "EPHEMERIS_TYPE": 0, "CLASSIFICATION_TYPE": "U", "NORAD_CAT_ID": 30201, "ELEMENT_SET_NO": 999, "REV_AT_EPOCH": 97965, "BSTAR": 0.00041197713, "MEAN_MOTION_DOT": 8.81e-06, "MEAN_MOTION_DDOT": 0}, "tle": {"line1": "1 30201U 99025VJ  25356.43837978  .00000881  00000+0  41198-3 0  9993", "line2": "2 30201  99.4015 131.3033 0028731 284.5990  75.2000 14.22960339979657"}}, "geometry": {"type": "Point", "coordinates": [-144.44741106089685, -80.53589567063564]}}, {"type": "Feature", "properties": {"norad_id": 30202, "name": "FENGYUN 1C DEB", "group": "fengyun-1c-debris", "lat": -73.4278218168489, "lon": -116.15536054347135, "alt_km": 742.4959665598435, "timestamp": "2025-12-22T23:36:20.988074+00:00", "meta": {"OBJECT_NAME": "FENGYUN 1C DEB", "OBJECT_ID": "1999-025VK", "EPOCH": "2025-12-22T05:53:55.013568", "MEAN_MOTION": 14.52515662, "ECCENTRICITY": 0.00382153, "INCLINATION": 98.6404, "RA_OF_ASC_NODE": 93.8138, "ARG_OF_PERICENTER": 29.2285, "MEAN_ANOMALY": 331.1037, "EPHEMERIS_TYPE": 0, "CLASSIFICATION_TYPE": "U", "NORAD_CAT_ID": 30202, "ELEMENT_SET_NO": 999, "REV_AT_EPOCH": 98427, "BSTAR": 0.0021519894, "MEAN_MOTION_DOT": 8.834e-05, "MEAN_MOTION_DDOT": 0}, "tle": {"line1": "1 30202U 99025VK  25356.24577562  .00008834  00000+0  21520-2 0  9995", "line2": "2 30202  98.6404  93.8138 0038215  29.2285 331.1037 14.52515662984274"}}, "geometry": {"type": "Point", "coordinates": [-116.15536054347135, -73.4278218168489]}}, {"type": "Feature", "properties": {"norad_id": 30205, "name": "FENGYUN 1C DEB", "group": "fengyun-1c-debris", "lat": 79.08514850070122, "lon": -16.809241329769065, "alt_km": 877.680620492356, "timestamp": "2025-12-22T23:36:20.988084+00:00", "meta": {"OBJECT_NAME": "FENGYUN 1C DEB", "OBJECT_ID": "1999-025VN", "EPOCH": "2025-12-22T05:59:12.956064", "MEAN_MOTION": 13.8804901, "ECCENTRICITY": 0.01213302, "INCLINATION": 98.9969, "RA_OF_ASC_NODE": 107.2426, "ARG_OF_PERICENTER": 154.1378, "MEAN_ANOMALY": 236.7984, "EPHEMERIS_TYPE": 0, "CLASSIFICATION_TYPE": "U", "NORAD_CAT_ID": 30205, "ELEMENT_SET_NO": 999, "REV_AT_EPOCH": 95770, "BSTAR": 0.00028079395, "MEAN_MOTION_DOT": 3.13e-06, "MEAN_MOTION_DDOT": 0}, "tle": {"line1": "1 30205U 99025VN  25356.24945551  .00000313  00000+0  28079-3 0  9996", "line2": "2 30205  98.9969 107.2426 0121330 154.1378 236.7984 13.88049010957704"}}, "geometry": {"type": "Point", "coordinates": [-16.809241329769065, 79.08514850070122]}}, {"type": "Feature", "properties": {"norad_id": 30206, "name": "FENGYUN 1C DEB", "group": "fengyun-1c-debris", "lat": 60.63910730236771, "lon": -169.0888233859477, "alt_km": 761.736010912342, "timestamp": "2025-12-22T23:36:20.988095+00:00", "meta": {"OBJECT_NAME": "FENGYUN 1C DEB", "OBJECT_ID": "1999-025VP", "EPOCH": "2025-12-22T11:28:14.343456", "MEAN_MOTION": 14.491933, "ECCENTRICITY": 0.01453064, "INCLINATION": 98.2317, "RA_OF_ASC_NODE": 355.5065, "ARG_OF_PERICENTER": 6.6091, "MEAN_ANOMALY": 353.6975, "EPHEMERIS_TYPE": 0, "CLASSIFICATION_TYPE": "U", "NORAD_CAT_ID": 30206, "ELEMENT_SET_NO": 999, "REV_AT_EPOCH": 99542, "BSTAR": 0.00046943255, "MEAN_MOTION_DOT": 1.995e-05, "MEAN_MOTION_DDOT": 0}, "tle": {"line1": "1 30206U 99025VP  25356.47794379  .00001995  00000+0  46943-3 0  9999", "line2": "2 30206  98.2317 355.5065 0145306   6.6091 353.6975 14.49193300995424"}}, "geometry": {"type": "Point", "coordinates": [-169.0888233859477, 60.63910730236771]}}, {"type": "Feature", "properties": {"norad_id": 30207, "name": "FENGYUN 1C DEB", "group": "fengyun-1c-debris", "lat": 23.49970094229964, "lon": 102.96787372904541, "alt_km": 984.2119582574223, "timestamp": "2025-12-22T23:36:20.988105+00:00", "meta": {"OBJECT_NAME": "FENGYUN 1C DEB", "OBJECT_ID": "1999-025VQ", "EPOCH": "2025-12-22T06:13:22.188576", "MEAN_MOTION": 13.7914224, "ECCENTRICITY": 0.02607588, "INCLINATION": 98.5741, "RA_OF_ASC_NODE": 106.0726, "ARG_OF_PERICENTER": 122.6817, "MEAN_ANOMALY": 270.0892, "EPHEMERIS_TYPE": 0, "CLASSIFICATION_TYPE": "U", "NORAD_CAT_ID": 30207, "ELEMENT_SET_NO": 999, "REV_AT_EPOCH": 95194, "BSTAR": 0.00019265177, "MEAN_MOTION_DOT": 2.18e-06, "MEAN_MOTION_DDOT": 0}, "tle": {"line1": "1 30207U 99025VQ  25356.25928459  .00000218  00000+0  19265-3 0  9998", "line2": "2 30207  98.5741 106.0726 0260758 122.6817 270.0892 13.79142240951944"}}, "geometry": {"type": "Point", "coordinates": [102.96787372904541, 23.49970094229964]}}]}